{
  "type": "FeatureCollection",
  "features": [
    {
      "type": "Feature",
      "properties": {
        "norad_id": 41890,
        "name": "CYGFM07",
        "group": "weather",
        "lat": -21.34228267733402,
        "lon": 12.065895010350282,
        "alt_km": 423.3616533728609,
        "timestamp": "2025-12-08T23:34:03.612571+00:00",
        "meta_object_name": "CYGFM07",
        "meta_object_id": "2016-078G",
        "meta_epoch": "2025-12-08T14:27:41.221152",
        "meta_mean_motion": 15.49748278,
        "meta_eccentricity": 0.00094512,
        "meta_inclination": 34.948,
        "meta_ra_of_asc_node": 48.5742,
        "meta_arg_of_pericenter": 178.7665,
        "meta_mean_anomaly": 181.3082,
        "meta_ephemeris_type": 0,
        "meta_classification_type": "U",
        "meta_norad_cat_id": 41890,
        "meta_element_set_no": 999,
        "meta_rev_at_epoch": 49931,
        "meta_bstar": 0.00049170689,
        "meta_mean_motion_dot": 0.00028275,
        "meta_mean_motion_ddot": 0,
        "tle_line1": "1 41890U 16078G   25342.60256043  .00028275  00000+0  49171-3 0  9994",
        "tle_line2": "2 41890  34.9480  48.5742 0009451 178.7665 181.3082 15.49748278499315"
      },
      "geometry": {
        "type": "Point",
        "coordinates": [
          12.065895010350282,
          -21.34228267733402
        ]
      }
    },
    {
      "type": "Feature",
      "properties": {
        "norad_id": 41891,
        "name": "CYGFM03",
        "group": "weather",
        "lat": 13.12754401093584,
        "lon": -151.5083852351212,
        "alt_km": 408.9422050680514,
        "timestamp": "2025-12-08T23:34:03.612582+00:00",
        "meta_object_name": "CYGFM03",
        "meta_object_id": "2016-078H",
        "meta_epoch": "2025-12-08T13:37:08.069664",
        "meta_mean_motion": 15.4964836,
        "meta_eccentricity": 0.00087259,
        "meta_inclination": 34.9436,
        "meta_ra_of_asc_node": 50.72,
        "meta_arg_of_pericenter": 165.7953,
        "meta_mean_anomaly": 194.3016,
        "meta_ephemeris_type": 0,
        "meta_classification_type": "U",
        "meta_norad_cat_id": 41891,
        "meta_element_set_no": 999,
        "meta_rev_at_epoch": 49928,
        "meta_bstar": 0.00049798144,
        "meta_mean_motion_dot": 0.00028529,
        "meta_mean_motion_ddot": 0,
        "tle_line1": "1 41891U 16078H   25342.56745451  .00028529  00000+0  49798-3 0  9993",
        "tle_line2": "2 41891  34.9436  50.7200 0008725 165.7953 194.3016 15.49648360499288"
      },
      "geometry": {
        "type": "Point",
        "coordinates": [
          -151.5083852351212,
          13.12754401093584
        ]
      }
    },
    {
      "type": "Feature",
      "properties": {
        "norad_id": 43010,
        "name": "FENGYUN 3D",
        "group": "weather",
        "lat": -70.83287586639881,
        "lon": 102.14675543479267,
        "alt_km": 833.3783723605557,
        "timestamp": "2025-12-08T23:34:03.612593+00:00",
        "meta_object_name": "FENGYUN 3D",
        "meta_object_id": "2017-072A",
        "meta_epoch": "2025-12-08T13:55:20.519040",
        "meta_mean_motion": 14.19682268,
        "meta_eccentricity": 8.252e-05,
        "meta_inclination": 98.9889,
        "meta_ra_of_asc_node": 308.8282,
        "meta_arg_of_pericenter": 194.4517,
        "meta_mean_anomaly": 165.6635,
        "meta_ephemeris_type": 0,
        "meta_classification_type": "U",
        "meta_norad_cat_id": 43010,
        "meta_element_set_no": 999,
        "meta_rev_at_epoch": 41794,
        "meta_bstar": 0.00013935206,
        "meta_mean_motion_dot": 2.49e-06,
        "meta_mean_motion_ddot": 0,
        "tle_line1": "1 43010U 17072A   25342.58009860  .00000249  00000+0  13935-3 0  9995",
        "tle_line2": "2 43010  98.9889 308.8282 0000825 194.4517 165.6635 14.19682268417942"
      },
      "geometry": {
        "type": "Point",
        "coordinates": [
          102.14675543479267,
          -70.83287586639881
        ]
      }
    },
    {
      "type": "Feature",
      "properties": {
        "norad_id": 43013,
        "name": "NOAA 20 (JPSS-1)",
        "group": "weather",
        "lat": 46.69186299575521,
        "lon": -90.09398009411352,
        "alt_km": 821.7250248110104,
        "timestamp": "2025-12-08T23:34:03.612604+00:00",
        "meta_object_name": "NOAA 20 (JPSS-1)",
        "meta_object_id": "2017-073A",
        "meta_epoch": "2025-12-08T13:11:42.549792",
        "meta_mean_motion": 14.19524052,
        "meta_eccentricity": 0.00021317,
        "meta_inclination": 98.7593,
        "meta_ra_of_asc_node": 278.8925,
        "meta_arg_of_pericenter": 93.523,
        "meta_mean_anomaly": 266.619,
        "meta_ephemeris_type": 0,
        "meta_classification_type": "U",
        "meta_norad_cat_id": 43013,
        "meta_element_set_no": 999,
        "meta_rev_at_epoch": 41742,
        "meta_bstar": 0.00011292911,
        "meta_mean_motion_dot": 1.94e-06,
        "meta_mean_motion_ddot": 0,
        "tle_line1": "1 43013U 17073A   25342.54979803  .00000194  00000+0  11293-3 0  9992",
        "tle_line2": "2 43013  98.7593 278.8925 0002131  93.5230 266.6190 14.19524052417425"
      },
      "geometry": {
        "type": "Point",
        "coordinates": [
          -90.09398009411352,
          46.69186299575521
        ]
      }
    },
    {
      "type": "Feature",
      "properties": {
        "norad_id": 43226,
        "name": "GOES 17",
        "group": "weather",
        "lat": -0.4300009388599996,
        "lon": -17.968587895360713,
        "alt_km": 35780.66021254912,
        "timestamp": "2025-12-08T23:34:03.612616+00:00",
        "meta_object_name": "GOES 17",
        "meta_object_id": "2018-022A",
        "meta_epoch": "2025-12-08T12:29:48.227712",
        "meta_mean_motion": 1.0027181,
        "meta_eccentricity": 0.00034323,
        "meta_inclination": 0.4489,
        "meta_ra_of_asc_node": 89.1818,
        "meta_arg_of_pericenter": 185.1908,
        "meta_mean_anomaly": 261.1072,
        "meta_ephemeris_type": 0,
        "meta_classification_type": "U",
        "meta_norad_cat_id": 43226,
        "meta_element_set_no": 999,
        "meta_rev_at_epoch": 2851,
        "meta_bstar": 0,
        "meta_mean_motion_dot": -1.8e-06,
        "meta_mean_motion_ddot": 0,
        "tle_line1": "1 43226U 18022A   25342.52069708 -.00000180  00000+0  00000+0 0  9991",
        "tle_line2": "2 43226   0.4489  89.1818 0003432 185.1908 261.1072  1.00271810 28518"
      },
      "geometry": {
        "type": "Point",
        "coordinates": [
          -17.968587895360713,
          -0.4300009388599996
        ]
      }
    },
    {
      "type": "Feature",
      "properties": {
        "norad_id": 43491,
        "name": "FENGYUN 2H",
        "group": "weather",
        "lat": 2.385582055839185,
        "lon": 150.8068607738121,
        "alt_km": 35787.29917466146,
        "timestamp": "2025-12-08T23:34:03.612629+00:00",
        "meta_object_name": "FENGYUN 2H",
        "meta_object_id": "2018-050A",
        "meta_epoch": "2025-12-08T13:58:57.568800",
        "meta_mean_motion": 1.00271316,
        "meta_eccentricity": 0.0002848,
        "meta_inclination": 2.54,
        "meta_ra_of_asc_node": 81.3746,
        "meta_arg_of_pericenter": 165.9406,
        "meta_mean_anomaly": 119.3751,
        "meta_ephemeris_type": 0,
        "meta_classification_type": "U",
        "meta_norad_cat_id": 43491,
        "meta_element_set_no": 999,
        "meta_rev_at_epoch": 2752,
        "meta_bstar": 0,
        "meta_mean_motion_dot": -1.28e-06,
        "meta_mean_motion_ddot": 0,
        "tle_line1": "1 43491U 18050A   25342.58261075 -.00000128  00000+0  00000+0 0  9995",
        "tle_line2": "2 43491   2.5400  81.3746 0002848 165.9406 119.3751  1.00271316 27520"
      },
      "geometry": {
        "type": "Point",
        "coordinates": [
          150.8068607738121,
          2.385582055839185
        ]
      }
    },
    {
      "type": "Feature",
      "properties": {
        "norad_id": 43689,
        "name": "METOP-C",
        "group": "weather",
        "lat": 17.73949436539913,
        "lon": -136.38541317134812,
        "alt_km": 821.040124408707,
        "timestamp": "2025-12-08T23:34:03.612640+00:00",
        "meta_object_name": "METOP-C",
        "meta_object_id": "2018-087A",
        "meta_epoch": "2025-12-08T14:21:43.075008",
        "meta_mean_motion": 14.21509678,
        "meta_eccentricity": 0.00015102,
        "meta_inclination": 98.6935,
        "meta_ra_of_asc_node": 40.4314,
        "meta_arg_of_pericenter": 49.445,
        "meta_mean_anomaly": 310.6859,
        "meta_ephemeris_type": 0,
        "meta_classification_type": "U",
        "meta_norad_cat_id": 43689,
        "meta_element_set_no": 999,
        "meta_rev_at_epoch": 36775,
        "meta_bstar": 0.00015427048,
        "meta_mean_motion_dot": 2.94e-06,
        "meta_mean_motion_ddot": 0,
        "tle_line1": "1 43689U 18087A   25342.59841522  .00000294  00000+0  15427-3 0  9992",
        "tle_line2": "2 43689  98.6935  40.4314 0001510  49.4450 310.6859 14.21509678367754"
      },
      "geometry": {
        "type": "Point",
        "coordinates": [
          -136.38541317134812,
          17.73949436539913
        ]
      }
    }
  ]
}